{
  "norad_id": 49209,
  "name": "ONEWEB-0343",
  "history": [
    {
      "epoch": "2026-04-10T09:23:25.706400Z",
      "apogee_km": 1191.1854855899137,
      "perigee_km": 1188.2960698543802,
      "latitude_deg": 3.851646865926265e-05,
      "longitude_deg": 9.45310750339651,
      "height_km": 1192.0192818873493,
      "semi_major_axis_km": 7567.877777722147,
      "eccentricity": 0.0001909,
      "inclination_deg": 87.9232,
      "raan_deg": 348.936,
      "arg_perigee_deg": 64.6464,
      "mean_anomaly_deg": 295.4866,
      "mean_motion_rev_day": 13.18686614
    },
    {
      "epoch": "2026-04-11T09:03:50.158368Z",
      "apogee_km": 1191.1726852514412,
      "perigee_km": 1188.30900027574,
      "latitude_deg": 3.597341598193237e-05,
      "longitude_deg": 13.183387762585287,
      "height_km": 1192.0219001755554,
      "semi_major_axis_km": 7567.877842763591,
      "eccentricity": 0.0001892,
      "inclination_deg": 87.9228,
      "raan_deg": 348.7404,
      "arg_perigee_deg": 64.5142,
      "mean_anomaly_deg": 295.6186,
      "mean_motion_rev_day": 13.18686597
    },
    {
      "epoch": "2026-04-13T02:56:51.870048Z",
      "apogee_km": 1191.1114215531989,
      "perigee_km": 1188.369276874484,
      "latitude_deg": -9.657517786866901e-06,
      "longitude_deg": 102.85984580354143,
      "height_km": 1192.030792724085,
      "semi_major_axis_km": 7567.877349213841,
      "eccentricity": 0.00018117,
      "inclination_deg": 87.9221,
      "raan_deg": 348.3941,
      "arg_perigee_deg": 63.7287,
      "mean_anomaly_deg": 296.4031,
      "mean_motion_rev_day": 13.18686726
    },
    {
      "epoch": "2026-04-14T15:22:06.487104Z",
      "apogee_km": 1191.1287830139472,
      "perigee_km": 1188.351372126479,
      "latitude_deg": -2.6028078362645375e-05,
      "longitude_deg": -85.24790381169146,
      "height_km": 1192.0468585078827,
      "semi_major_axis_km": 7567.877077570213,
      "eccentricity": 0.0001835,
      "inclination_deg": 87.9219,
      "raan_deg": 348.093,
      "arg_perigee_deg": 64.837,
      "mean_anomaly_deg": 295.2952,
      "mean_motion_rev_day": 13.18686797
    },
    {
      "epoch": "2026-04-15T16:51:46.670400Z",
      "apogee_km": 1191.098231270411,
      "perigee_km": 1188.3798501965794,
      "latitude_deg": 4.3595407486300756e-05,
      "longitude_deg": -108.9231514688181,
      "height_km": 1192.0493987090174,
      "semi_major_axis_km": 7567.876040733495,
      "eccentricity": 0.0001796,
      "inclination_deg": 87.9216,
      "raan_deg": 347.8822,
      "arg_perigee_deg": 64.4156,
      "mean_anomaly_deg": 295.7162,
      "mean_motion_rev_day": 13.18687068
    },
    {
      "epoch": "2026-04-16T14:42:55.448064Z",
      "apogee_km": 1191.0759456335081,
      "perigee_km": 1188.404484976506,
      "latitude_deg": 1.5977637366892784e-05,
      "longitude_deg": -77.78777206056996,
      "height_km": 1192.0536199271407,
      "semi_major_axis_km": 7567.877215305007,
      "eccentricity": 0.0001765,
      "inclination_deg": 87.9219,
      "raan_deg": 347.7016,
      "arg_perigee_deg": 64.0752,
      "mean_anomaly_deg": 296.0562,
      "mean_motion_rev_day": 13.18686761
    },
    {
      "epoch": "2026-04-17T21:40:22.772640Z",
      "apogee_km": 1191.029066858504,
      "perigee_km": 1188.4500858788087,
      "latitude_deg": -1.2868767699425157e-05,
      "longitude_deg": 176.32099322339647,
      "height_km": 1192.067627945221,
      "semi_major_axis_km": 7567.876576368656,
      "eccentricity": 0.00017039,
      "inclination_deg": 87.9221,
      "raan_deg": 347.4456,
      "arg_perigee_deg": 63.7943,
      "mean_anomaly_deg": 296.3364,
      "mean_motion_rev_day": 13.18686928
    },
    {
      "epoch": "2026-04-18T21:20:47.124384Z",
      "apogee_km": 1191.0576520221412,
      "perigee_km": 1188.4149506653112,
      "latitude_deg": 3.037384424821189e-05,
      "longitude_deg": -179.94840397664487,
      "height_km": 1192.081216995953,
      "semi_major_axis_km": 7567.873301343726,
      "eccentricity": 0.0001746,
      "inclination_deg": 87.9218,
      "raan_deg": 347.2499,
      "arg_perigee_deg": 65.2849,
      "mean_anomaly_deg": 294.8465,
      "mean_motion_rev_day": 13.18687784
    },
    {
      "epoch": "2026-04-19T17:22:40.085184Z",
      "apogee_km": 1191.0415184110561,
      "perigee_km": 1188.4306022052497,
      "latitude_deg": -7.651047776255152e-05,
      "longitude_deg": -121.40743821021383,
      "height_km": 1192.0912207013366,
      "semi_major_axis_km": 7567.873060308153,
      "eccentricity": 0.0001725,
      "inclination_deg": 87.9213,
      "raan_deg": 347.0842,
      "arg_perigee_deg": 65.4566,
      "mean_anomaly_deg": 294.6745,
      "mean_motion_rev_day": 13.18687847
    },
    {
      "epoch": "2026-04-20T09:46:01.695648Z",
      "apogee_km": 1190.980709982192,
      "perigee_km": 1188.5069211012078,
      "latitude_deg": 1.0542825417767322e-05,
      "longitude_deg": -8.056066035785234,
      "height_km": 1192.107495869036,
      "semi_major_axis_km": 7567.8808155417,
      "eccentricity": 0.00016344,
      "inclination_deg": 87.9213,
      "raan_deg": 346.9487,
      "arg_perigee_deg": 64.4283,
      "mean_anomaly_deg": 295.7018,
      "mean_motion_rev_day": 13.1868582
    },
    {
      "epoch": "2026-04-21T09:26:26.100096Z",
      "apogee_km": 1190.9781460901522,
      "perigee_km": 1188.5002720617758,
      "latitude_deg": 8.18995595920076e-06,
      "longitude_deg": -4.3258875293277885,
      "height_km": 1192.1266668750288,
      "semi_major_axis_km": 7567.876209075964,
      "eccentricity": 0.00016371,
      "inclination_deg": 87.9208,
      "raan_deg": 346.7528,
      "arg_perigee_deg": 65.6874,
      "mean_anomaly_deg": 294.4429,
      "mean_motion_rev_day": 13.18687024
    },
    {
      "epoch": "2026-04-22T01:49:47.603424Z",
      "apogee_km": 1190.9830992100278,
      "perigee_km": 1188.4946302681847,
      "latitude_deg": -6.913452925545465e-05,
      "longitude_deg": 109.02582580350837,
      "height_km": 1192.1395365560359,
      "semi_major_axis_km": 7567.875864739106,
      "eccentricity": 0.00016441,
      "inclination_deg": 87.9205,
      "raan_deg": 346.6172,
      "arg_perigee_deg": 66.4637,
      "mean_anomaly_deg": 293.6667,
      "mean_motion_rev_day": 13.18687114
    },
    {
      "epoch": "2026-04-23T01:30:11.931840Z",
      "apogee_km": 1191.0208023410778,
      "perigee_km": 1188.4474234478485,
      "latitude_deg": -7.070608507352725e-05,
      "longitude_deg": 112.75602199153643,
      "height_km": 1192.1510948252421,
      "semi_major_axis_km": 7567.871112894462,
      "eccentricity": 0.00017002,
      "inclination_deg": 87.921,
      "raan_deg": 346.421,
      "arg_perigee_deg": 68.0751,
      "mean_anomaly_deg": 292.0561,
      "mean_motion_rev_day": 13.18688356
    },
    {
      "epoch": "2026-04-24T15:44:39.948288Z",
      "apogee_km": 1190.7018125488812,
      "perigee_km": 1188.626721441472,
      "latitude_deg": -3.87184860633266e-05,
      "longitude_deg": -102.74542112660232,
      "height_km": 1192.2406487304181,
      "semi_major_axis_km": 7567.801266995177,
      "eccentricity": 0.0001371,
      "inclination_deg": 87.9194,
      "raan_deg": 346.1068,
      "arg_perigee_deg": 71.9461,
      "mean_anomaly_deg": 288.182,
      "mean_motion_rev_day": 13.18706612
    },
    {
      "epoch": "2026-04-25T15:25:02.234208Z",
      "apogee_km": 1190.7908828446452,
      "perigee_km": 1188.4690919329141,
      "latitude_deg": 1.5015313457462317e-05,
      "longitude_deg": -99.00918723126468,
      "height_km": 1191.991244256279,
      "semi_major_axis_km": 7567.766987388779,
      "eccentricity": 0.0001534,
      "inclination_deg": 87.9208,
      "raan_deg": 345.9081,
      "arg_perigee_deg": 62.4717,
      "mean_anomaly_deg": 297.6571,
      "mean_motion_rev_day": 13.18715572
    },
    {
      "epoch": "2026-04-26T16:54:38.051712Z",
      "apogee_km": 1190.8159513528672,
      "perigee_km": 1188.295001635096,
      "latitude_deg": -5.231427287348255e-05,
      "longitude_deg": -122.66520080936644,
      "height_km": 1192.0248370163335,
      "semi_major_axis_km": 7567.692476493981,
      "eccentricity": 0.00016656,
      "inclination_deg": 87.9194,
      "raan_deg": 345.6983,
      "arg_perigee_deg": 70.1434,
      "mean_anomaly_deg": 289.9877,
      "mean_motion_rev_day": 13.18735048
    },
    {
      "epoch": "2026-04-27T14:45:43.599744Z",
      "apogee_km": 1190.6939901555534,
      "perigee_km": 1188.3828220865253,
      "latitude_deg": 1.0772863137567912e-05,
      "longitude_deg": -91.5166255653142,
      "height_km": 1192.013942444123,
      "semi_major_axis_km": 7567.6754061210395,
      "eccentricity": 0.0001527,
      "inclination_deg": 87.92,
      "raan_deg": 345.5174,
      "arg_perigee_deg": 68.5695,
      "mean_anomaly_deg": 291.56,
      "mean_motion_rev_day": 13.1873951
    },
    {
      "epoch": "2026-04-28T14:26:04.645824Z",
      "apogee_km": 1190.8526038235132,
      "perigee_km": 1188.1736556775813,
      "latitude_deg": 1.0167848989126401e-05,
      "longitude_deg": -87.77241239990305,
      "height_km": 1191.9399043184014,
      "semi_major_axis_km": 7567.6501297505465,
      "eccentricity": 0.000177,
      "inclination_deg": 87.9203,
      "raan_deg": 345.3215,
      "arg_perigee_deg": 69.4323,
      "mean_anomaly_deg": 290.6999,
      "mean_motion_rev_day": 13.18746117
    },
    {
      "epoch": "2026-04-29T21:23:27.153600Z",
      "apogee_km": 1190.8440528240926,
      "perigee_km": 1188.193859708208,
      "latitude_deg": -1.2969857988912077e-05,
      "longitude_deg": 166.35627677217067,
      "height_km": 1191.955539968743,
      "semi_major_axis_km": 7567.65595626615,
      "eccentricity": 0.0001751,
      "inclination_deg": 87.92,
      "raan_deg": 345.0653,
      "arg_perigee_deg": 69.6506,
      "mean_anomaly_deg": 290.4814,
      "mean_motion_rev_day": 13.18744594
    }
  ]
}